0 SL-8 R/B
1 08597U 76005B   13282.29317042  .00000082  00000-0  69558-4 0   854
2 08597 082.9745 338.3781 0025459 030.2878 038.7428 13.74981586891981
0 SL-8 R/B
1 08597U 76005B   13287.15929367  .00000052  00000-0  38941-4 0   874
2 08597 082.9734 334.7895 0025127 016.7275 005.7019 13.74981407892654
0 SL-8 R/B
1 08597U 76005B   13289.13177089  .00000028  00000-0  13820-4 0   883
2 08597 082.9730 333.3346 0024999 011.2154 049.3364 13.74981494892921
0 SL-8 R/B
1 08597U 76005B   13290.15034480  .00000013  00000-0 -23309-5 0   894
2 08597 082.9728 332.5833 0024934 008.3368 051.2435 13.74981620893061
0 SL-8 R/B
1 08597U 76005B   13291.16895414  .00000007  00000-0 -81762-5 0   900
2 08597 082.9727 331.8318 0024875 005.4346 053.3506 13.74981673893204
0 SL-8 R/B
1 08597U 76005B   13292.18794359  .00000010  00000-0 -50355-5 0   918
2 08597 082.9726 331.0800 0024794 002.6223 057.2486 13.74981757893342
0 SL-8 R/B
1 08597U 76005B   13293.27690937  .00000000  00000-0 -15796-4 0   925
2 08597 082.9726 330.2766 0024731 359.4921 047.6475 13.74981729893499
0 SL-8 R/B
1 08597U 76005B   13294.53781198  .00000012  00000-0 -33264-5 0   930
2 08597 082.9726 329.3465 0024650 355.9127 169.0919 13.74981645893661
0 SL-8 R/B
1 08597U 76005B   13295.69690682  .00000020  00000-0  49045-5 0   948
2 08597 082.9717 328.4911 0024422 352.4212 146.7910 13.74981341893825
